{"epoch":1784799577,"count":18318,"objects":[{"id":"40697","name":"SENTINEL 2A","type":"PAYLOAD","l1":"1 40697U 15028A   26203.94897638 -.00000022  00000-0  82885-5 0  9990","l2":"2 40697  98.5669 278.2905 0001342  96.8654 263.2682 14.30815589578847"},{"id":"42063","name":"SENTINEL 2B","type":"PAYLOAD","l1":"1 42063U 17013A   26203.94178336 -.00000102  00000-0 -22257-4 0  9998","l2":"2 42063  98.5676 278.2091 0001237  93.1168 267.0157 14.30816024489758"},{"id":"60989","name":"SENTINEL-2C","type":"PAYLOAD","l1":"1 60989U 24157A   26203.69704123  .00000058  00000-0  38607-4 0  9997","l2":"2 60989  98.5678 277.9742 0001038 108.5702 251.5594 14.30817204 98064"}]}